STARLINK-5722           
1 55610U 23020AT  24235.52501113  .00000159  00000+0  26835-4 0  9990
2 55610  43.0011 177.2342 0001213 264.1883  95.8821 15.02535820 84201
